STARLINK-35374          
1 66194U 25243T   25327.38791509  .00068993  00000+0  12368-2 0  9999
2 66194  53.1594  19.3584 0001307  89.2806 270.8352 15.49328215  4370
STARLINK-34813          
1 66195U 25243U   25327.45276536  .00067151  00000+0  12035-2 0  9992
2 66195  53.1594  19.0535 0001005  83.2130 276.8994 15.49346254  4385
STARLINK-35409          
1 66196U 25243V   25327.45310811  .00061536  00000+0  11050-2 0  9995
2 66196  53.1593  19.0560 0001025  89.2145 270.8982 15.49327601  4383
STARLINK-35518          
1 66197U 25243X   25327.38928984  .00048723  00000+0  87841-3 0  9999
2 66197  53.1591  19.3686 0001055  82.8308 277.2821 15.49316575  4377
STARLINK-35259          
1 66198U 25243W   25327.83335647 -.02064452  00000+0 -65989-1 0  9996
2 66198  53.1594  17.3208 0001456  86.7578 190.3433 15.35191179  5546
STARLINK-35509          
1 66199U 25243Y   25327.44658282  .00070004  00000+0  12541-2 0  9990
2 66199  53.1594  19.0098 0001067  85.8343 274.2788 15.49341095  4386
STARLINK-35551          
1 66200U 25243Z   25327.44726939  .00069686  00000+0  12482-2 0  9996
2 66200  53.1595  19.0145 0000886  80.2397 279.8712 15.49346457  4384
STARLINK-35543          
1 66201U 25243AA  25327.31859892  .00074326  00000+0  13315-2 0  9991
2 66201  53.1594  19.6332 0000882  79.3789 280.7319 15.49315245  4361
STARLINK-35534          
1 66202U 25243AB  25327.44795735  .00095617  00000+0  17048-2 0  9994
2 66202  53.1595  19.0197 0001214  70.2028 289.9112 15.49333465  4380
STARLINK-35548          
1 66203U 25243AC  25327.64192286 -.00090925  00000+0 -16701-2 0  9993
2 66203  53.1598  18.0972 0006803  38.1591 321.9899 15.48861479  4414
STARLINK-35490          
1 66204U 25243AD  25327.83335647 -.02100544  00000+0 -48684-1 0  9990
2 66204  53.1593  17.2002 0001319  90.5282 248.6031 15.45457023  5496
STARLINK-35748          
1 66206U 25244A   25327.52657106  .00055390  00000+0  13836-2 0  9992
2 66206  53.1595   6.7099 0001230  84.3401 275.7744 15.39643541  5357
