CCSDS_OMM_VERS = 2.0
CREATION_DATE  = 
ORIGINATOR     = 

OBJECT_NAME    = STARLINK-35374
OBJECT_ID      = 2025-243T
CENTER_NAME    = EARTH
REF_FRAME      = TEME
TIME_SYSTEM    = UTC
MEAN_ELEMENT_THEORY = SGP/SGP4

EPOCH          = 2025-11-23T09:18:35.863776
MEAN_MOTION    = 15.49328215
ECCENTRICITY   = .0001307
INCLINATION    = 53.1594
RA_OF_ASC_NODE = 19.3584
ARG_OF_PERICENTER = 89.2806
MEAN_ANOMALY   = 270.8352

EPHEMERIS_TYPE = 0
CLASSIFICATION_TYPE = U
NORAD_CAT_ID   = 66194
ELEMENT_SET_NO = 999
REV_AT_EPOCH   = 437
BSTAR          = .12368E-2
MEAN_MOTION_DOT = .68993E-3
MEAN_MOTION_DDOT = 0

CCSDS_OMM_VERS = 2.0
CREATION_DATE  = 
ORIGINATOR     = 

OBJECT_NAME    = STARLINK-34813
OBJECT_ID      = 2025-243U
CENTER_NAME    = EARTH
REF_FRAME      = TEME
TIME_SYSTEM    = UTC
MEAN_ELEMENT_THEORY = SGP/SGP4

EPOCH          = 2025-11-23T10:51:58.927104
MEAN_MOTION    = 15.49346254
ECCENTRICITY   = .0001005
INCLINATION    = 53.1594
RA_OF_ASC_NODE = 19.0535
ARG_OF_PERICENTER = 83.2130
MEAN_ANOMALY   = 276.8994

EPHEMERIS_TYPE = 0
CLASSIFICATION_TYPE = U
NORAD_CAT_ID   = 66195
ELEMENT_SET_NO = 999
REV_AT_EPOCH   = 438
BSTAR          = .12035E-2
MEAN_MOTION_DOT = .67151E-3
MEAN_MOTION_DDOT = 0

CCSDS_OMM_VERS = 2.0
CREATION_DATE  = 
ORIGINATOR     = 

OBJECT_NAME    = STARLINK-35409
OBJECT_ID      = 2025-243V
CENTER_NAME    = EARTH
REF_FRAME      = TEME
TIME_SYSTEM    = UTC
MEAN_ELEMENT_THEORY = SGP/SGP4

EPOCH          = 2025-11-23T10:52:28.540704
MEAN_MOTION    = 15.49327601
ECCENTRICITY   = .0001025
INCLINATION    = 53.1593
RA_OF_ASC_NODE = 19.0560
ARG_OF_PERICENTER = 89.2145
MEAN_ANOMALY   = 270.8982

EPHEMERIS_TYPE = 0
CLASSIFICATION_TYPE = U
NORAD_CAT_ID   = 66196
ELEMENT_SET_NO = 999
REV_AT_EPOCH   = 438
BSTAR          = .1105E-2
MEAN_MOTION_DOT = .61536E-3
MEAN_MOTION_DDOT = 0

CCSDS_OMM_VERS = 2.0
CREATION_DATE  = 
ORIGINATOR     = 

OBJECT_NAME    = STARLINK-35518
OBJECT_ID      = 2025-243X
CENTER_NAME    = EARTH
REF_FRAME      = TEME
TIME_SYSTEM    = UTC
MEAN_ELEMENT_THEORY = SGP/SGP4

EPOCH          = 2025-11-23T09:20:34.642176
MEAN_MOTION    = 15.49316575
ECCENTRICITY   = .0001055
INCLINATION    = 53.1591
RA_OF_ASC_NODE = 19.3686
ARG_OF_PERICENTER = 82.8308
MEAN_ANOMALY   = 277.2821

EPHEMERIS_TYPE = 0
CLASSIFICATION_TYPE = U
NORAD_CAT_ID   = 66197
ELEMENT_SET_NO = 999
REV_AT_EPOCH   = 437
BSTAR          = .87841E-3
MEAN_MOTION_DOT = .48723E-3
MEAN_MOTION_DDOT = 0

CCSDS_OMM_VERS = 2.0
CREATION_DATE  = 
ORIGINATOR     = 

OBJECT_NAME    = STARLINK-35259
OBJECT_ID      = 2025-243W
CENTER_NAME    = EARTH
REF_FRAME      = TEME
TIME_SYSTEM    = UTC
MEAN_ELEMENT_THEORY = SGP/SGP4

EPOCH          = 2025-11-23T20:00:01.999008
MEAN_MOTION    = 15.35191179
ECCENTRICITY   = .0001456
INCLINATION    = 53.1594
RA_OF_ASC_NODE = 17.3208
ARG_OF_PERICENTER = 86.7578
MEAN_ANOMALY   = 190.3433

EPHEMERIS_TYPE = 0
CLASSIFICATION_TYPE = U
NORAD_CAT_ID   = 66198
ELEMENT_SET_NO = 999
REV_AT_EPOCH   = 554
BSTAR          = -.65989E-1
MEAN_MOTION_DOT = -.2064452E-1
MEAN_MOTION_DDOT = 0

CCSDS_OMM_VERS = 2.0
CREATION_DATE  = 
ORIGINATOR     = 

OBJECT_NAME    = STARLINK-35509
OBJECT_ID      = 2025-243Y
CENTER_NAME    = EARTH
REF_FRAME      = TEME
TIME_SYSTEM    = UTC
MEAN_ELEMENT_THEORY = SGP/SGP4

EPOCH          = 2025-11-23T10:43:04.755648
MEAN_MOTION    = 15.49341095
ECCENTRICITY   = .0001067
INCLINATION    = 53.1594
RA_OF_ASC_NODE = 19.0098
ARG_OF_PERICENTER = 85.8343
MEAN_ANOMALY   = 274.2788

EPHEMERIS_TYPE = 0
CLASSIFICATION_TYPE = U
NORAD_CAT_ID   = 66199
ELEMENT_SET_NO = 999
REV_AT_EPOCH   = 438
BSTAR          = .12541E-2
MEAN_MOTION_DOT = .70004E-3
MEAN_MOTION_DDOT = 0

CCSDS_OMM_VERS = 2.0
CREATION_DATE  = 
ORIGINATOR     = 

OBJECT_NAME    = STARLINK-35551
OBJECT_ID      = 2025-243Z
CENTER_NAME    = EARTH
REF_FRAME      = TEME
TIME_SYSTEM    = UTC
MEAN_ELEMENT_THEORY = SGP/SGP4

EPOCH          = 2025-11-23T10:44:04.075296
MEAN_MOTION    = 15.49346457
ECCENTRICITY   = .0000886
INCLINATION    = 53.1595
RA_OF_ASC_NODE = 19.0145
ARG_OF_PERICENTER = 80.2397
MEAN_ANOMALY   = 279.8712

EPHEMERIS_TYPE = 0
CLASSIFICATION_TYPE = U
NORAD_CAT_ID   = 66200
ELEMENT_SET_NO = 999
REV_AT_EPOCH   = 438
BSTAR          = .12482E-2
MEAN_MOTION_DOT = .69686E-3
MEAN_MOTION_DDOT = 0

CCSDS_OMM_VERS = 2.0
CREATION_DATE  = 
ORIGINATOR     = 

OBJECT_NAME    = STARLINK-35543
OBJECT_ID      = 2025-243AA
CENTER_NAME    = EARTH
REF_FRAME      = TEME
TIME_SYSTEM    = UTC
MEAN_ELEMENT_THEORY = SGP/SGP4

EPOCH          = 2025-11-23T07:38:46.946688
MEAN_MOTION    = 15.49315245
ECCENTRICITY   = .0000882
INCLINATION    = 53.1594
RA_OF_ASC_NODE = 19.6332
ARG_OF_PERICENTER = 79.3789
MEAN_ANOMALY   = 280.7319

EPHEMERIS_TYPE = 0
CLASSIFICATION_TYPE = U
NORAD_CAT_ID   = 66201
ELEMENT_SET_NO = 999
REV_AT_EPOCH   = 436
BSTAR          = .13315E-2
MEAN_MOTION_DOT = .74326E-3
MEAN_MOTION_DDOT = 0

CCSDS_OMM_VERS = 2.0
CREATION_DATE  = 
ORIGINATOR     = 

OBJECT_NAME    = STARLINK-35534
OBJECT_ID      = 2025-243AB
CENTER_NAME    = EARTH
REF_FRAME      = TEME
TIME_SYSTEM    = UTC
MEAN_ELEMENT_THEORY = SGP/SGP4

EPOCH          = 2025-11-23T10:45:03.515040
MEAN_MOTION    = 15.49333465
ECCENTRICITY   = .0001214
INCLINATION    = 53.1595
RA_OF_ASC_NODE = 19.0197
ARG_OF_PERICENTER = 70.2028
MEAN_ANOMALY   = 289.9112

EPHEMERIS_TYPE = 0
CLASSIFICATION_TYPE = U
NORAD_CAT_ID   = 66202
ELEMENT_SET_NO = 999
REV_AT_EPOCH   = 438
BSTAR          = .17048E-2
MEAN_MOTION_DOT = .95617E-3
MEAN_MOTION_DDOT = 0

CCSDS_OMM_VERS = 2.0
CREATION_DATE  = 
ORIGINATOR     = 

OBJECT_NAME    = STARLINK-35548
OBJECT_ID      = 2025-243AC
CENTER_NAME    = EARTH
REF_FRAME      = TEME
TIME_SYSTEM    = UTC
MEAN_ELEMENT_THEORY = SGP/SGP4

EPOCH          = 2025-11-23T15:24:22.135104
MEAN_MOTION    = 15.48861479
ECCENTRICITY   = .0006803
INCLINATION    = 53.1598
RA_OF_ASC_NODE = 18.0972
ARG_OF_PERICENTER = 38.1591
MEAN_ANOMALY   = 321.9899

EPHEMERIS_TYPE = 0
CLASSIFICATION_TYPE = U
NORAD_CAT_ID   = 66203
ELEMENT_SET_NO = 999
REV_AT_EPOCH   = 441
BSTAR          = -.16701E-2
MEAN_MOTION_DOT = -.90925E-3
MEAN_MOTION_DDOT = 0

CCSDS_OMM_VERS = 2.0
CREATION_DATE  = 
ORIGINATOR     = 

OBJECT_NAME    = STARLINK-35490
OBJECT_ID      = 2025-243AD
CENTER_NAME    = EARTH
REF_FRAME      = TEME
TIME_SYSTEM    = UTC
MEAN_ELEMENT_THEORY = SGP/SGP4

EPOCH          = 2025-11-23T20:00:01.999008
MEAN_MOTION    = 15.45457023
ECCENTRICITY   = .0001319
INCLINATION    = 53.1593
RA_OF_ASC_NODE = 17.2002
ARG_OF_PERICENTER = 90.5282
MEAN_ANOMALY   = 248.6031

EPHEMERIS_TYPE = 0
CLASSIFICATION_TYPE = U
NORAD_CAT_ID   = 66204
ELEMENT_SET_NO = 999
REV_AT_EPOCH   = 549
BSTAR          = -.48684E-1
MEAN_MOTION_DOT = -.2100544E-1
MEAN_MOTION_DDOT = 0

CCSDS_OMM_VERS = 2.0
CREATION_DATE  = 
ORIGINATOR     = 

OBJECT_NAME    = STARLINK-35748
OBJECT_ID      = 2025-244A
CENTER_NAME    = EARTH
REF_FRAME      = TEME
TIME_SYSTEM    = UTC
MEAN_ELEMENT_THEORY = SGP/SGP4

EPOCH          = 2025-11-23T12:38:15.739584
MEAN_MOTION    = 15.39643541
ECCENTRICITY   = .000123
INCLINATION    = 53.1595
RA_OF_ASC_NODE = 6.7099
ARG_OF_PERICENTER = 84.3401
MEAN_ANOMALY   = 275.7744

EPHEMERIS_TYPE = 0
CLASSIFICATION_TYPE = U
NORAD_CAT_ID   = 66206
ELEMENT_SET_NO = 999
REV_AT_EPOCH   = 535
BSTAR          = .13836E-2
MEAN_MOTION_DOT = .5539E-3
MEAN_MOTION_DDOT = 0

